[{"OBJECT_NAME":"STARLINK-35662","OBJECT_ID":"2025-257E","EPOCH":"2026-03-09T16:05:35.593440","MEAN_MOTION":15.30200777,"ECCENTRICITY":0.00010982,"INCLINATION":53.1611,"RA_OF_ASC_NODE":216.8957,"ARG_OF_PERICENTER":77.3305,"MEAN_ANOMALY":282.7818,"EPHEMERIS_TYPE":0,"CLASSIFICATION_TYPE":"U","NORAD_CAT_ID":66384,"ELEMENT_SET_NO":999,"REV_AT_EPOCH":1973,"BSTAR":0.0010754051,"MEAN_MOTION_DOT":0.00031628,"MEAN_MOTION_DDOT":0},{"OBJECT_NAME":"KUIPER-00213","OBJECT_ID":"2026-030P","EPOCH":"2026-03-09T22:00:01.999584","MEAN_MOTION":15.32626943,"ECCENTRICITY":0.00152813,"INCLINATION":51.8816,"RA_OF_ASC_NODE":218.5142,"ARG_OF_PERICENTER":64.2462,"MEAN_ANOMALY":206.8369,"EPHEMERIS_TYPE":0,"CLASSIFICATION_TYPE":"U","NORAD_CAT_ID":67777,"ELEMENT_SET_NO":999,"REV_AT_EPOCH":502,"BSTAR":0.0016072376,"MEAN_MOTION_DOT":0.00051551,"MEAN_MOTION_DDOT":0}]
